CS1                     
1 49261U 21088B   26068.75173904  .00015722  00000+0  51176-3 0  9998
2 49261  97.3882 132.1684 0014129  78.0335 282.2490 15.31848439245182
STARLINK-32140          
1 61511U 24183C   26068.48973684 -.00002161  00000+0 -60845-4 0  9991
2 61511  53.1603 143.2518 0001019  74.1089 286.0024 15.30205626 79624
