[{"OBJECT_NAME":"CS1","OBJECT_ID":"2021-088B","EPOCH":"2026-03-09T18:02:30.253920","MEAN_MOTION":15.31848439,"ECCENTRICITY":0.00141292,"INCLINATION":97.3882,"RA_OF_ASC_NODE":132.1684,"ARG_OF_PERICENTER":78.0335,"MEAN_ANOMALY":282.249,"EPHEMERIS_TYPE":0,"CLASSIFICATION_TYPE":"U","NORAD_CAT_ID":49261,"ELEMENT_SET_NO":999,"REV_AT_EPOCH":24518,"BSTAR":0.00051175576,"MEAN_MOTION_DOT":0.00015722,"MEAN_MOTION_DDOT":0},{"OBJECT_NAME":"STARLINK-32140","OBJECT_ID":"2024-183C","EPOCH":"2026-03-09T11:45:13.262976","MEAN_MOTION":15.30205626,"ECCENTRICITY":0.00010196,"INCLINATION":53.1603,"RA_OF_ASC_NODE":143.2518,"ARG_OF_PERICENTER":74.1089,"MEAN_ANOMALY":286.0024,"EPHEMERIS_TYPE":0,"CLASSIFICATION_TYPE":"U","NORAD_CAT_ID":61511,"ELEMENT_SET_NO":999,"REV_AT_EPOCH":7962,"BSTAR":-6.0845062e-5,"MEAN_MOTION_DOT":-2.161e-5,"MEAN_MOTION_DDOT":0}]
